{"type": "FeatureCollection", "features": [{"type": "Feature", "properties": {"norad_id": 24876, "name": "GPS BIIR-2  (PRN 13)", "group": "gps-ops", "lat": -22.514926303718756, "lon": 89.13617331273844, "alt_km": 20157.8533556463, "timestamp": "2025-12-24T03:53:29.906043+00:00", "meta": {"OBJECT_NAME": "GPS BIIR-2  (PRN 13)", "OBJECT_ID": "1997-035A", "EPOCH": "2025-12-22T04:56:13.490880", "MEAN_MOTION": 2.00563727, "ECCENTRICITY": 0.00968316, "INCLINATION": 55.8997, "RA_OF_ASC_NODE": 105.4987, "ARG_OF_PERICENTER": 56.961, "MEAN_ANOMALY": 303.9513, "EPHEMERIS_TYPE": 0, "CLASSIFICATION_TYPE": "U", "NORAD_CAT_ID": 24876, "ELEMENT_SET_NO": 999, "REV_AT_EPOCH": 20840, "BSTAR": 0, "MEAN_MOTION_DOT": 1.2e-07, "MEAN_MOTION_DDOT": 0}, "tle": {"line1": "1 24876U 97035A   25356.20571170  .00000012  00000+0  00000+0 0  9996", "line2": "2 24876  55.8997 105.4987 0096831  56.9610 303.9513  2.00563727208400"}}, "geometry": {"type": "Point", "coordinates": [89.13617331273844, -22.514926303718756]}}, {"type": "Feature", "properties": {"norad_id": 26360, "name": "GPS BIIR-4  (PRN 20)", "group": "gps-ops", "lat": 48.264577590116495, "lon": 77.99187536668134, "alt_km": 20279.613494008816, "timestamp": "2025-12-24T03:53:29.906071+00:00", "meta": {"OBJECT_NAME": "GPS BIIR-4  (PRN 20)", "OBJECT_ID": "2000-025A", "EPOCH": "2025-12-23T19:23:28.398048", "MEAN_MOTION": 2.00566749, "ECCENTRICITY": 0.0038902, "INCLINATION": 55.0517, "RA_OF_ASC_NODE": 26.3903, "ARG_OF_PERICENTER": 243.0445, "MEAN_ANOMALY": 286.8521, "EPHEMERIS_TYPE": 0, "CLASSIFICATION_TYPE": "U", "NORAD_CAT_ID": 26360, "ELEMENT_SET_NO": 999, "REV_AT_EPOCH": 18775, "BSTAR": 0, "MEAN_MOTION_DOT": -5.7e-07, "MEAN_MOTION_DDOT": 0}, "tle": {"line1": "1 26360U 00025A   25357.80796757 -.00000057  00000+0  00000+0 0  9996", "line2": "2 26360  55.0517  26.3903 0038902 243.0445 286.8521  2.00566749187758"}}, "geometry": {"type": "Point", "coordinates": [77.99187536668134, 48.264577590116495]}}, {"type": "Feature", "properties": {"norad_id": 26407, "name": "GPS BIIR-5  (PRN 22)", "group": "gps-ops", "lat": -54.48864619312762, "lon": 122.45677913165179, "alt_km": 19922.609641397066, "timestamp": "2025-12-24T03:53:29.906087+00:00", "meta": {"OBJECT_NAME": "GPS BIIR-5  (PRN 22)", "OBJECT_ID": "2000-040A", "EPOCH": "2025-12-23T19:23:16.859328", "MEAN_MOTION": 2.00568088, "ECCENTRICITY": 0.0125405, "INCLINATION": 54.8884, "RA_OF_ASC_NODE": 222.1289, "ARG_OF_PERICENTER": 301.9882, "MEAN_ANOMALY": 67.4958, "EPHEMERIS_TYPE": 0, "CLASSIFICATION_TYPE": "U", "NORAD_CAT_ID": 26407, "ELEMENT_SET_NO": 999, "REV_AT_EPOCH": 18643, "BSTAR": 0, "MEAN_MOTION_DOT": 6.5e-07, "MEAN_MOTION_DDOT": 0}, "tle": {"line1": "1 26407U 00040A   25357.80783402  .00000065  00000+0  00000+0 0  9996", "line2": "2 26407  54.8884 222.1289 0125405 301.9882  67.4958  2.00568088186430"}}, "geometry": {"type": "Point", "coordinates": [122.45677913165179, -54.48864619312762]}}, {"type": "Feature", "properties": {"norad_id": 27663, "name": "GPS BIIR-8  (PRN 16)", "group": "gps-ops", "lat": 32.40297917011664, "lon": -111.57933900402756, "alt_km": 19791.638941713813, "timestamp": "2025-12-24T03:53:29.906101+00:00", "meta": {"OBJECT_NAME": "GPS BIIR-8  (PRN 16)", "OBJECT_ID": "2003-005A", "EPOCH": "2025-12-23T07:51:19.360224", "MEAN_MOTION": 2.00570305, "ECCENTRICITY": 0.0147825, "INCLINATION": 54.921, "RA_OF_ASC_NODE": 221.9571, "ARG_OF_PERICENTER": 51.9554, "MEAN_ANOMALY": 106.5355, "EPHEMERIS_TYPE": 0, "CLASSIFICATION_TYPE": "U", "NORAD_CAT_ID": 27663, "ELEMENT_SET_NO": 999, "REV_AT_EPOCH": 16778, "BSTAR": 0, "MEAN_MOTION_DOT": 6.6e-07, "MEAN_MOTION_DDOT": 0}, "tle": {"line1": "1 27663U 03005A   25357.32730741  .00000066  00000+0  00000+0 0  9991", "line2": "2 27663  54.9210 221.9571 0147825  51.9554 106.5355  2.00570305167786"}}, "geometry": {"type": "Point", "coordinates": [-111.57933900402756, 32.40297917011664]}}, {"type": "Feature", "properties": {"norad_id": 28190, "name": "GPS BIIR-11 (PRN 19)", "group": "gps-ops", "lat": -16.500767640327723, "lon": 114.72375601159992, "alt_km": 19940.29005010469, "timestamp": "2025-12-24T03:53:29.906114+00:00", "meta": {"OBJECT_NAME": "GPS BIIR-11 (PRN 19)", "OBJECT_ID": "2004-009A", "EPOCH": "2025-12-22T01:59:41.237952", "MEAN_MOTION": 2.00560473, "ECCENTRICITY": 0.01084919, "INCLINATION": 54.9772, "RA_OF_ASC_NODE": 282.8425, "ARG_OF_PERICENTER": 167.7907, "MEAN_ANOMALY": 330.6754, "EPHEMERIS_TYPE": 0, "CLASSIFICATION_TYPE": "U", "NORAD_CAT_ID": 28190, "ELEMENT_SET_NO": 999, "REV_AT_EPOCH": 15939, "BSTAR": 0, "MEAN_MOTION_DOT": -2.4e-07, "MEAN_MOTION_DDOT": 0}, "tle": {"line1": "1 28190U 04009A   25356.08311618 -.00000024  00000+0  00000+0 0  9997", "line2": "2 28190  54.9772 282.8425 0108491 167.7907 330.6754  2.00560473159399"}}, "geometry": {"type": "Point", "coordinates": [114.72375601159992, -16.500767640327723]}}, {"type": "Feature", "properties": {"norad_id": 28474, "name": "GPS BIIR-13 (PRN 02)", "group": "gps-ops", "lat": -53.62765805040694, "lon": -137.57551475998673, "alt_km": 19897.153166940985, "timestamp": "2025-12-24T03:53:29.906127+00:00", "meta": {"OBJECT_NAME": "GPS BIIR-13 (PRN 02)", "OBJECT_ID": "2004-045A", "EPOCH": "2025-12-22T13:16:56.089344", "MEAN_MOTION": 2.00570004, "ECCENTRICITY": 0.0170937, "INCLINATION": 55.2358, "RA_OF_ASC_NODE": 332.0112, "ARG_OF_PERICENTER": 309.6885, "MEAN_ANOMALY": 228.7623, "EPHEMERIS_TYPE": 0, "CLASSIFICATION_TYPE": "U", "NORAD_CAT_ID": 28474, "ELEMENT_SET_NO": 999, "REV_AT_EPOCH": 15488, "BSTAR": 0, "MEAN_MOTION_DOT": -6.6e-07, "MEAN_MOTION_DDOT": 0}, "tle": {"line1": "1 28474U 04045A   25356.55342696 -.00000066  00000+0  00000+0 0  9990", "line2": "2 28474  55.2358 332.0112 0170937 309.6885 228.7623  2.00570004154887"}}, "geometry": {"type": "Point", "coordinates": [-137.57551475998673, -53.62765805040694]}}, {"type": "Feature", "properties": {"norad_id": 28874, "name": "GPS BIIRM-1 (PRN 17)", "group": "gps-ops", "lat": -30.20796997974388, "lon": 124.25235089412864, "alt_km": 20096.60757789214, "timestamp": "2025-12-24T03:53:29.906139+00:00", "meta": {"OBJECT_NAME": "GPS BIIRM-1 (PRN 17)", "OBJECT_ID": "2005-038A", "EPOCH": "2025-12-23T15:29:31.408224", "MEAN_MOTION": 2.005777, "ECCENTRICITY": 0.0131308, "INCLINATION": 55.0222, "RA_OF_ASC_NODE": 280.2619, "ARG_OF_PERICENTER": 293.8052, "MEAN_ANOMALY": 272.4454, "EPHEMERIS_TYPE": 0, "CLASSIFICATION_TYPE": "U", "NORAD_CAT_ID": 28874, "ELEMENT_SET_NO": 999, "REV_AT_EPOCH": 14831, "BSTAR": 0, "MEAN_MOTION_DOT": -2e-07, "MEAN_MOTION_DDOT": 0}, "tle": {"line1": "1 28874U 05038A   25357.64550241 -.00000020  00000+0  00000+0 0  9995", "line2": "2 28874  55.0222 280.2619 0131308 293.8052 272.4454  2.00577700148313"}}, "geometry": {"type": "Point", "coordinates": [124.25235089412864, -30.20796997974388]}}, {"type": "Feature", "properties": {"norad_id": 29486, "name": "GPS BIIRM-2 (PRN 31)", "group": "gps-ops", "lat": 43.359988530236826, "lon": -63.72961309753709, "alt_km": 20079.8825907278, "timestamp": "2025-12-24T03:53:29.906152+00:00", "meta": {"OBJECT_NAME": "GPS BIIRM-2 (PRN 31)", "OBJECT_ID": "2006-042A", "EPOCH": "2025-12-21T12:25:39.335232", "MEAN_MOTION": 2.00553827, "ECCENTRICITY": 0.01073004, "INCLINATION": 54.6951, "RA_OF_ASC_NODE": 158.3926, "ARG_OF_PERICENTER": 52.1628, "MEAN_ANOMALY": 320.0686, "EPHEMERIS_TYPE": 0, "CLASSIFICATION_TYPE": "U", "NORAD_CAT_ID": 29486, "ELEMENT_SET_NO": 999, "REV_AT_EPOCH": 14083, "BSTAR": 0, "MEAN_MOTION_DOT": 7.1e-07, "MEAN_MOTION_DDOT": 0}, "tle": {"line1": "1 29486U 06042A   25355.51781638  .00000071  00000+0  00000+0 0  9996", "line2": "2 29486  54.6951 158.3926 0107300  52.1628 320.0686  2.00553827140833"}}, "geometry": {"type": "Point", "coordinates": [-63.72961309753709, 43.359988530236826]}}, {"type": "Feature", "properties": {"norad_id": 29601, "name": "GPS BIIRM-3 (PRN 12)", "group": "gps-ops", "lat": -0.7696966559573799, "lon": 41.49792634784755, "alt_km": 20193.351435732988, "timestamp": "2025-12-24T03:53:29.906164+00:00", "meta": {"OBJECT_NAME": "GPS BIIRM-3 (PRN 12)", "OBJECT_ID": "2006-052A", "EPOCH": "2025-12-22T22:00:58.169952", "MEAN_MOTION": 2.00574295, "ECCENTRICITY": 0.0087996, "INCLINATION": 54.9685, "RA_OF_ASC_NODE": 220.9942, "ARG_OF_PERICENTER": 87.562, "MEAN_ANOMALY": 273.5353, "EPHEMERIS_TYPE": 0, "CLASSIFICATION_TYPE": "U", "NORAD_CAT_ID": 29601, "ELEMENT_SET_NO": 999, "REV_AT_EPOCH": 13987, "BSTAR": 0, "MEAN_MOTION_DOT": 6.8e-07, "MEAN_MOTION_DDOT": 0}, "tle": {"line1": "1 29601U 06052A   25356.91733993  .00000068  00000+0  00000+0 0  9998", "line2": "2 29601  54.9685 220.9942 0087996  87.5620 273.5353  2.00574295139872"}}, "geometry": {"type": "Point", "coordinates": [41.49792634784755, -0.7696966559573799]}}, {"type": "Feature", "properties": {"norad_id": 32260, "name": "GPS BIIRM-4 (PRN 15)", "group": "gps-ops", "lat": -32.739582534231594, "lon": 59.42951126515229, "alt_km": 20445.257334869857, "timestamp": "2025-12-24T03:53:29.906176+00:00", "meta": {"OBJECT_NAME": "GPS BIIRM-4 (PRN 15)", "OBJECT_ID": "2007-047A", "EPOCH": "2025-12-22T05:26:06.407520", "MEAN_MOTION": 2.00564155, "ECCENTRICITY": 0.0163987, "INCLINATION": 53.9614, "RA_OF_ASC_NODE": 87.3666, "ARG_OF_PERICENTER": 85.3577, "MEAN_ANOMALY": 276.5274, "EPHEMERIS_TYPE": 0, "CLASSIFICATION_TYPE": "U", "NORAD_CAT_ID": 32260, "ELEMENT_SET_NO": 999, "REV_AT_EPOCH": 13326, "BSTAR": 0, "MEAN_MOTION_DOT": -1.3e-07, "MEAN_MOTION_DDOT": 0}, "tle": {"line1": "1 32260U 07047A   25356.22646305 -.00000013  00000+0  00000+0 0  9993", "line2": "2 32260  53.9614  87.3666 0163987  85.3577 276.5274  2.00564155133264"}}, "geometry": {"type": "Point", "coordinates": [59.42951126515229, -32.739582534231594]}}]}